KUIPER-00074            
1 64821U 25151F   25338.41863586  .00000052  00000+0  36268-4 0  9992
2 64821  51.9021 351.8741 0013444 316.7003  43.2902 14.79946217 21335
KUIPER-00075            
1 64822U 25151G   25338.27123590  .00083142  00000+0  20263-2 0  9998
2 64822  51.8753 325.2267 0003718 306.3331  53.7313 15.40174950 21694
KUIPER-00076            
1 64823U 25151H   25338.41590436  .00006888  00000+0  93221-3 0  9999
2 64823  51.9015 354.3822 0004573 308.4372  51.6180 14.79903798 21303
KUIPER-00077            
1 64824U 25151J   25338.27552147  .00011487  00000+0  15340-2 0  9997
2 64824  51.9025   0.0091 0005993 267.7901  92.2375 14.79902038 21213
KUIPER-00078            
1 64825U 25151K   25338.44699374  .00012657  00000+0  16864-2 0  9993
2 64825  51.9010 356.7453 0008305 331.5407  28.5101 14.79910501 21271
KUIPER-00079            
1 64826U 25151L   25338.47546272  .00008464  00000+0  11293-2 0  9997
2 64826  51.8994   1.6074 0011554 286.2754  73.6937 14.80218716 22403
KUIPER-00080            
1 64827U 25151M   25338.44166701  .00012296  00000+0  16406-2 0  9999
2 64827  51.9007   1.7605 0005377 298.6360  61.4061 14.79884240 21206
KUIPER-00082            
1 64828U 25151N   25338.55620150 -.00014221  00000+0 -18530-2 0  9997
2 64828  51.9022 348.7649 0004795 322.9261  37.1370 14.79635330 21397
KUIPER-00083            
1 64829U 25151P   25338.27809557  .00012061  00000+0  16053-2 0  9993
2 64829  51.9018 357.4924 0010999 285.1928  74.7818 14.79977113 22437
KUIPER-00084            
1 64830U 25151Q   25338.46997187  .00011154  00000+0  14876-2 0  9996
2 64830  51.9012   6.6325 0011704 259.6649 100.2994 14.79953360 21136
KUIPER-00085            
1 64831U 25151R   25338.32006821  .00012246  00000+0  16301-2 0  9996
2 64831  51.9045 349.8260 0007187 299.3944  60.6300 14.79980654 21352
KUIPER-00086            
1 64832U 25151S   25338.44425963  .00011271  00000+0  15027-2 0  9993
2 64832  51.9020 359.2642 0010912 285.3496  74.6261 14.79966755 21236
KUIPER-00087            
1 64833U 25151T   25338.32811534  .00009266  00000+0  12421-2 0  9990
2 64833  51.8998 342.2733 0000824 352.3087   7.7863 14.79953494 21450
KUIPER-00089            
1 64834U 25151U   25338.32276544  .00012539  00000+0  16695-2 0  9991
2 64834  51.9019 347.2985 0001431  43.5090 316.5985 14.79966414 21393
KUIPER-00090            
1 64835U 25151V   25338.30830037  .00007970  00000+0  11124-2 0  9998
2 64835  51.8989 338.9860 0004223  44.0713 316.0584 14.78401789 21509
KUIPER-00091            
1 64836U 25151W   25338.39301382  .00011767  00000+0  15692-2 0  9997
2 64836  51.9012 344.4951 0007932 339.4032  20.6609 14.79935260 21431
KUIPER-00092            
1 64837U 25151X   25338.45186075  .00009708  00000+0  12957-2 0  9998
2 64837  51.9019 351.7249 0006434 288.7068  71.3195 14.80084755 22554
KUIPER-00093            
1 64838U 25151Y   25338.44963498  .00012686  00000+0  16860-2 0  9996
2 64838  51.9002 354.2283 0013997 293.8881  66.0614 14.79976441 21304
KUIPER-00094            
1 64839U 25151Z   25338.28782478  .00020878  00000+0  14907-2 0  9998
2 64839  51.8911 341.1707 0004770 327.7728  32.2953 15.04459969 21474
KUIPER-00081            
1 65132U 25171A   25338.75002315 -.00943322  00000+0 -65463-1 0  9996
2 65132  51.8884 210.8246 0004267 189.5153 285.5397 15.08094297  4094
KUIPER-00088            
1 65133U 25171B   25338.41372736  .00004497  00000+0  66666-3 0  9994
2 65133  51.8985 226.8437 0008334 163.2622 196.8615 14.76698316 18688
KUIPER-00095            
1 65134U 25171C   25338.75002315 -.00004827  00000+0 -33401-3 0  9995
2 65134  51.8854 211.8809 0005615 162.1299  63.4810 15.03064979  4626
KUIPER-00096            
1 65135U 25171D   25338.75002315 -.00008613  00000+0 -11013-2 0  9997
2 65135  51.8984 217.9081 0011769 189.4796 276.2853 14.79905156  2296
KUIPER-00097            
1 65136U 25171E   25338.38486197  .00010552  00000+0  14121-2 0  9997
2 65136  51.9006 222.0840 0010860 187.8676 172.2117 14.79868471 18735
KUIPER-00098            
1 65137U 25171F   25338.38727117  .00011136  00000+0  14852-2 0  9998
2 65137  51.8989 224.5135 0007906 175.5807 184.5226 14.79979020 18051
KUIPER-00099            
1 65138U 25171G   25338.75002315 -.00019613  00000+0 -17268-2 0  9990
2 65138  51.8945 213.5850 0006034 217.3603   4.3267 14.95656217  5403
KUIPER-00100            
1 65139U 25171H   25338.75002315 -.01818023  00000+0 -13998+0 0  9997
2 65139  51.8885 211.9441 0002737 219.4329  70.6631 15.04844671  5606
KUIPER-00102            
1 65140U 25171J   25338.75002315 -.02004273  00000+0 -19778+0 0  9996
2 65140  51.8944 213.4441 0012534 183.4684 345.8975 14.95086478  5083
KUIPER-00103            
1 65141U 25171K   25338.41297566  .00003818  00000+0  52918-3 0  9991
2 65141  51.8984 231.8942 0006383 172.6627 187.4430 14.79964954 18604
KUIPER-00104            
1 65142U 25171L   25337.40931433  .00001519  00000+0  17563-3 0  9991
2 65142  51.8951 222.9821 0002992 194.5077 165.5804 14.91228512 18643
KUIPER-00105            
1 65143U 25171M   25337.97949924  .00008698  00000+0  11670-2 0  9995
2 65143  51.9006 228.8806 0013349 145.8426 214.3398 14.79939263 18615
KUIPER-00106            
1 65144U 25171N   25338.43881574  .00014581  00000+0  12918-2 0  9998
2 65144  51.8931 227.5866 0009835 141.0033 219.1648 14.96401513 18679
KUIPER-00107            
1 65145U 25171P   25338.75002315 -.01030031  00000+0 -69797-1 0  9999
2 65145  51.8919 210.7728 0007278 195.4886 218.0872 15.08720632  4262
KUIPER-00108            
1 65146U 25171Q   25338.69393975  .00005056  00000+0  69113-3 0  9998
2 65146  51.9015 220.6584 0008992 158.1538 201.9809 14.79956845 18793
KUIPER-00109            
1 65147U 25171R   25338.75002315 -.00682321  00000+0 -76427-1 0  9993
2 65147  51.9170 215.5377 0013149 174.5925 160.8370 14.88808889  5304
KUIPER-00110            
1 65148U 25171S   25338.39553181  .00010571  00000+0  15172-2 0  9997
2 65148  51.8992 229.3236 0011567 150.7496 209.4115 14.76878100 18631
KUIPER-00111            
1 65149U 25171T   25338.44405391 -.00002895  00000+0 -35000-3 0  9998
2 65149  51.8979 234.2471 0009961 155.9167 204.2263 14.79965692 18576
KUIPER-00112            
1 65150U 25171U   25338.75002315 -.00009859  00000+0 -11120-2 0  9996
2 65150  51.8967 215.5096 0009326 201.8789  21.2378 14.85232458  5143
KUIPER-00114            
1 65151U 25171V   25338.44148208  .00009177  00000+0  12304-2 0  9991
2 65151  51.8997 236.7943 0006735 144.7671 215.3737 14.79951063 18534
KUIPER-00115            
1 65152U 25171W   25338.11180740  .00004142  00000+0  57143-3 0  9991
2 65152  51.9005 230.7300 0010089 170.1604 189.9558 14.79961124 18595
KUIPER-00116            
1 65153U 25171X   25338.41033531  .00001936  00000+0  28345-3 0  9990
2 65153  51.8985 234.4574 0011067 133.3995 226.7891 14.79859416 18564
KUIPER-00118            
1 65154U 25171Y   25338.13746809  .00005177  00000+0  70749-3 0  9995
2 65154  51.9008 238.1154 0001997 134.2483 225.8644 14.79941716 18493
KUIPER-00119            
1 65155U 25171Z   25338.42113962  .00007711  00000+0  10399-2 0  9996
2 65155  51.8988 224.4451 0008699 160.9205 199.2085 14.79894506 18703
KUIPER-00120            
1 65762U 25217A   25338.67519642  .00011202  00000+0  11013-2 0  9997
2 65762  51.8933 112.7493 0016494 338.1054  21.9207 14.92446273 10679
KUIPER-00132            
1 65763U 25217B   25338.57649545  .00071458  00000+0  19194-2 0  9990
2 65763  51.8620 104.2241 0006172 346.7058  13.3765 15.37254314 10780
KUIPER-00133            
1 65764U 25217C   25338.75002315  .00028826  00000+0  38021-2 0  9990
2 65764  51.9021 112.9057 0011247   6.9609 308.1610 14.79804825  5808
KUIPER-00139            
1 65765U 25217D   25338.75002315  .00042987  00000+0  32862-2 0  9992
2 65765  51.8845 108.4923 0007618 353.5602 316.1700 15.01492626  5431
KUIPER-00142            
1 65766U 25217E   25338.75002315 -.00754223  00000+0 -25697-1 0  9995
2 65766  51.8713 103.0385 0003129 354.5637  81.1703 15.32160701  3587
KUIPER-00145            
1 65767U 25217F   25338.75002315 -.00226029  00000+0 -98159-2 0  9998
2 65767  51.8794 103.8062 0006980 320.1300  69.0001 15.22784875  4862
KUIPER-00147            
1 65768U 25217G   25338.75002315  .00063396  00000+0  34185-2 0  9992
2 65768  51.8781 105.0468 0010094 346.2792 127.9080 15.14133993  4724
KUIPER-00148            
1 65769U 25217H   25338.75002315  .00038675  00000+0  18035-2 0  9991
2 65769  51.8710 105.0430 0008307  11.1699 157.7525 15.19469233  3250
KUIPER-00150            
1 65770U 25217J   25338.75002315 -.00933647  00000+0 -11203+0 0  9995
2 65770  51.9143 110.5368 0009526 357.3996 243.6774 14.86472797  5236
KUIPER-00151            
1 65771U 25217K   25338.75002315 -.01156029  00000+0 -70313-1 0  9997
2 65771  51.8791 105.6033 0002566 332.2118 311.5646 15.12971268  5605
KUIPER-00152            
1 65772U 25217L   25338.63181726  .00109321  00000+0  27777-2 0  9996
2 65772  51.8716 103.1574 0002059 299.3417  60.7365 15.38767703 10802
KUIPER-00153            
1 65773U 25217M   25338.62902919  .00022172  00000+0  13276-2 0  9998
2 65773  51.8774 109.7730 0012164 351.1226   8.9533 15.10874921 10718
KUIPER-00155            
1 65774U 25217N   25338.63968186  .00099859  00000+0  26738-2 0  9991
2 65774  51.8652 103.9110 0006628 343.3381  16.7387 15.37185606 10791
KUIPER-00156            
1 65775U 25217P   25338.57578529  .00085706  00000+0  21983-2 0  9996
2 65775  51.8719 103.5332 0002505 299.6703  60.4035 15.38604783 10798
KUIPER-00158            
1 65776U 25217Q   25338.75002315 -.00848352  00000+0 -64054-1 0  9993
2 65776  51.8833 106.9366 0004626 319.9489  37.0511 15.04686634  4658
KUIPER-00163            
1 65777U 25217R   25338.75002315 -.00991820  00000+0 -94752-1 0  9991
2 65777  51.8868 108.6122 0010646   1.2415 127.1114 14.95676423  4514
